FENGYUN 1C DEB          
1 31944U 99025CMV 17343.10441153  .00000185  00000-0  12673-3 0  9999
2 31944  99.0493  72.5664 0165095 240.9804 239.6548 14.05171696547250
